{
  "type": "FeatureCollection",
  "features": [
    {
      "type": "Feature",
      "properties": {
        "norad_id": 34874,
        "name": "COSMOS 2251 DEB",
        "group": "cosmos-2251-debris",
        "lat": -0.19592370732266087,
        "lon": 77.8567475635998,
        "alt_km": 782.1790754916256,
        "timestamp": "2025-12-10T11:33:53.779363+00:00",
        "meta_object_name": "COSMOS 2251 DEB",
        "meta_object_id": "1993-036ACM",
        "meta_epoch": "2025-12-08T12:49:57.989280",
        "meta_mean_motion": 14.36277608,
        "meta_eccentricity": 0.00511791,
        "meta_inclination": 74.0397,
        "meta_ra_of_asc_node": 81.487,
        "meta_arg_of_pericenter": 108.123,
        "meta_mean_anomaly": 268.2931,
        "meta_ephemeris_type": 0,
        "meta_classification_type": "U",
        "meta_norad_cat_id": 34874,
        "meta_element_set_no": 999,
        "meta_rev_at_epoch": 86984,
        "meta_bstar": 0.0015220199,
        "meta_mean_motion_dot": 4.491e-05,
        "meta_mean_motion_ddot": 0,
        "tle_line1": "1 34874U 93036ACM 25342.53469895  .00004491  00000+0  15220-2 0  9991",
        "tle_line2": "2 34874  74.0397  81.4870 0051179 108.1230 268.2931 14.36277608869844"
      },
      "geometry": {
        "type": "Point",
        "coordinates": [
          77.8567475635998,
          -0.19592370732266087
        ]
      }
    },
    {
      "type": "Feature",
      "properties": {
        "norad_id": 34875,
        "name": "COSMOS 2251 DEB",
        "group": "cosmos-2251-debris",
        "lat": -46.750212645713646,
        "lon": 144.7390235838116,
        "alt_km": 725.2766824618575,
        "timestamp": "2025-12-10T11:33:53.779373+00:00",
        "meta_object_name": "COSMOS 2251 DEB",
        "meta_object_id": "1993-036ACN",
        "meta_epoch": "2025-12-08T22:15:07.367904",
        "meta_mean_motion": 14.48903769,
        "meta_eccentricity": 0.0016077,
        "meta_inclination": 74.0434,
        "meta_ra_of_asc_node": 165.3578,
        "meta_arg_of_pericenter": 289.2326,
        "meta_mean_anomaly": 195.3832,
        "meta_ephemeris_type": 0,
        "meta_classification_type": "U",
        "meta_norad_cat_id": 34875,
        "meta_element_set_no": 999,
        "meta_rev_at_epoch": 87700,
        "meta_bstar": 0.00057345,
        "meta_mean_motion_dot": 2.147e-05,
        "meta_mean_motion_ddot": 0,
        "tle_line1": "1 34875U 93036ACN 25342.92716861  .00002147  00000+0  57345-3 0  9994",
        "tle_line2": "2 34875  74.0434 165.3578 0016077 289.2326 195.3832 14.48903769877003"
      },
      "geometry": {
        "type": "Point",
        "coordinates": [
          144.7390235838116,
          -46.750212645713646
        ]
      }
    },
    {
      "type": "Feature",
      "properties": {
        "norad_id": 34878,
        "name": "COSMOS 2251 DEB",
        "group": "cosmos-2251-debris",
        "lat": -29.03708973857333,
        "lon": -119.9078566654669,
        "alt_km": 1423.3062902686515,
        "timestamp": "2025-12-10T11:33:53.779383+00:00",
        "meta_object_name": "COSMOS 2251 DEB",
        "meta_object_id": "1993-036ACR",
        "meta_epoch": "2025-12-09T11:24:21.665664",
        "meta_mean_motion": 13.44185831,
        "meta_eccentricity": 0.04353122,
        "meta_inclination": 73.9652,
        "meta_ra_of_asc_node": 52.502,
        "meta_arg_of_pericenter": 36.6708,
        "meta_mean_anomaly": 343.8238,
        "meta_ephemeris_type": 0,
        "meta_classification_type": "U",
        "meta_norad_cat_id": 34878,
        "meta_element_set_no": 999,
        "meta_rev_at_epoch": 81229,
        "meta_bstar": 0.00088072379,
        "meta_mean_motion_dot": 8.84e-06,
        "meta_mean_motion_ddot": 0,
        "tle_line1": "1 34878U 93036ACR 25343.47525076  .00000884  00000+0  88072-3 0  9991",
        "tle_line2": "2 34878  73.9652  52.5020 0435312  36.6708 343.8238 13.44185831812297"
      },
      "geometry": {
        "type": "Point",
        "coordinates": [
          -119.9078566654669,
          -29.03708973857333
        ]
      }
    },
    {
      "type": "Feature",
      "properties": {
        "norad_id": 34882,
        "name": "COSMOS 2251 DEB",
        "group": "cosmos-2251-debris",
        "lat": 27.223609261457998,
        "lon": 41.44540440622517,
        "alt_km": 739.1161895208388,
        "timestamp": "2025-12-10T11:33:53.779393+00:00",
        "meta_object_name": "COSMOS 2251 DEB",
        "meta_object_id": "1993-036ACV",
        "meta_epoch": "2025-12-10T02:39:44.421984",
        "meta_mean_motion": 14.61589215,
        "meta_eccentricity": 0.0082746,
        "meta_inclination": 74.0466,
        "meta_ra_of_asc_node": 230.6168,
        "meta_arg_of_pericenter": 358.2159,
        "meta_mean_anomaly": 1.8698,
        "meta_ephemeris_type": 0,
        "meta_classification_type": "U",
        "meta_norad_cat_id": 34882,
        "meta_element_set_no": 999,
        "meta_rev_at_epoch": 88486,
        "meta_bstar": 0.00027513,
        "meta_mean_motion_dot": 1.403e-05,
        "meta_mean_motion_ddot": 0,
        "tle_line1": "1 34882U 93036ACV 25344.11093081  .00001403  00000+0  27513-3 0  9995",
        "tle_line2": "2 34882  74.0466 230.6168 0082746 358.2159   1.8698 14.61589215884868"
      },
      "geometry": {
        "type": "Point",
        "coordinates": [
          41.44540440622517,
          27.223609261457998
        ]
      }
    },
    {
      "type": "Feature",
      "properties": {
        "norad_id": 34883,
        "name": "COSMOS 2251 DEB",
        "group": "cosmos-2251-debris",
        "lat": -70.51832139597425,
        "lon": 13.7564111898111,
        "alt_km": 669.1926578936427,
        "timestamp": "2025-12-10T11:33:53.779403+00:00",
        "meta_object_name": "COSMOS 2251 DEB",
        "meta_object_id": "1993-036ACW",
        "meta_epoch": "2025-12-09T16:04:17.881824",
        "meta_mean_motion": 14.51318187,
        "meta_eccentricity": 0.0094952,
        "meta_inclination": 74.1998,
        "meta_ra_of_asc_node": 68.4409,
        "meta_arg_of_pericenter": 254.056,
        "meta_mean_anomaly": 105.0125,
        "meta_ephemeris_type": 0,
        "meta_classification_type": "U",
        "meta_norad_cat_id": 34883,
        "meta_element_set_no": 999,
        "meta_rev_at_epoch": 86395,
        "meta_bstar": 0.0064366,
        "meta_mean_motion_dot": 0.00027253,
        "meta_mean_motion_ddot": 0,
        "tle_line1": "1 34883U 93036ACW 25343.66965141  .00027253  00000+0  64366-2 0  9997",
        "tle_line2": "2 34883  74.1998  68.4409 0094952 254.0560 105.0125 14.51318187863952"
      },
      "geometry": {
        "type": "Point",
        "coordinates": [
          13.7564111898111,
          -70.51832139597425
        ]
      }
    },
    {
      "type": "Feature",
      "properties": {
        "norad_id": 34884,
        "name": "COSMOS 2251 DEB",
        "group": "cosmos-2251-debris",
        "lat": -72.08295630269502,
        "lon": -56.298495856485104,
        "alt_km": 606.8512337839347,
        "timestamp": "2025-12-10T11:33:53.779413+00:00",
        "meta_object_name": "COSMOS 2251 DEB",
        "meta_object_id": "1993-036ACX",
        "meta_epoch": "2025-12-09T11:54:06.414048",
        "meta_mean_motion": 14.89806876,
        "meta_eccentricity": 0.00023777,
        "meta_inclination": 74.017,
        "meta_ra_of_asc_node": 63.2401,
        "meta_arg_of_pericenter": 101.4659,
        "meta_mean_anomaly": 274.4011,
        "meta_ephemeris_type": 0,
        "meta_classification_type": "U",
        "meta_norad_cat_id": 34884,
        "meta_element_set_no": 999,
        "meta_rev_at_epoch": 87757,
        "meta_bstar": 0.0036313442,
        "meta_mean_motion_dot": 0.00035004,
        "meta_mean_motion_ddot": 0,
        "tle_line1": "1 34884U 93036ACX 25343.49590757  .00035004  00000+0  36313-2 0  9990",
        "tle_line2": "2 34884  74.0170  63.2401 0002377 101.4659 274.4011 14.89806876877579"
      },
      "geometry": {
        "type": "Point",
        "coordinates": [
          -56.298495856485104,
          -72.08295630269502
        ]
      }
    },
    {
      "type": "Feature",
      "properties": {
        "norad_id": 34885,
        "name": "COSMOS 2251 DEB",
        "group": "cosmos-2251-debris",
        "lat": 71.01925608160226,
        "lon": -49.08632303998583,
        "alt_km": 724.3425293449227,
        "timestamp": "2025-12-10T11:33:53.779423+00:00",
        "meta_object_name": "COSMOS 2251 DEB",
        "meta_object_id": "1993-036ACY",
        "meta_epoch": "2025-12-09T07:47:52.071936",
        "meta_mean_motion": 14.51475671,
        "meta_eccentricity": 0.0015285,
        "meta_inclination": 74.0308,
        "meta_ra_of_asc_node": 189.4511,
        "meta_arg_of_pericenter": 275.1109,
        "meta_mean_anomaly": 262.2211,
        "meta_ephemeris_type": 0,
        "meta_classification_type": "U",
        "meta_norad_cat_id": 34885,
        "meta_element_set_no": 999,
        "meta_rev_at_epoch": 87429,
        "meta_bstar": 0.00097667,
        "meta_mean_motion_dot": 3.882e-05,
        "meta_mean_motion_ddot": 0,
        "tle_line1": "1 34885U 93036ACY 25343.32490824  .00003882  00000+0  97667-3 0  9996",
        "tle_line2": "2 34885  74.0308 189.4511 0015285 275.1109 262.2211 14.51475671874294"
      },
      "geometry": {
        "type": "Point",
        "coordinates": [
          -49.08632303998583,
          71.01925608160226
        ]
      }
    }
  ]
}